{"type": "FeatureCollection", "features": [ {"type": "Feature", "properties": {"norad_id": 66432, "name": "STARLINK-35446", "group": "last-30-days", "lat": 38.535567704750555, "lon": 179.86765108327418, "alt_km": 438.6906656122728, "timestamp": "2025-12-10T20:49:51.343637+00:00", "meta": {"OBJECT_NAME": "STARLINK-35446", "OBJECT_ID": "2025-259L", "EPOCH": "2025-12-10T16:00:01.999584", "MEAN_MOTION": 15.40645832, "ECCENTRICITY": 0.00011564, "INCLINATION": 43.0001, "RA_OF_ASC_NODE": 59.7533, "ARG_OF_PERICENTER": 275.0497, "MEAN_ANOMALY": 161.2544, "EPHEMERIS_TYPE": 0, "CLASSIFICATION_TYPE": "U", "NORAD_CAT_ID": 66432, "ELEMENT_SET_NO": 999, "REV_AT_EPOCH": 594, "BSTAR": 0.0025674702, "MEAN_MOTION_DOT": 0.00108285, "MEAN_MOTION_DDOT": 0}, "tle": {"line1": "1 66432U 25259L   25344.66668981  .00108285  00000+0  25675-2 0  9992", "line2": "2 66432  43.0001  59.7533 0001156 275.0497 161.2544 15.40645832  5949"}}, "geometry": {"type": "Point", "coordinates": [179.86765108327418, 38.535567704750555]}}, {"type": "Feature", "properties": {"norad_id": 66433, "name": "STARLINK-35457", "group": "last-30-days", "lat": 33.27669761425484, "lon": -166.20812698903035, "alt_km": 439.55012883382096, "timestamp": "2025-12-10T20:49:51.343647+00:00", "meta": {"OBJECT_NAME": "STARLINK-35457", "OBJECT_ID": "2025-259M", "EPOCH": "2025-12-10T16:00:01.999584", "MEAN_MOTION": 15.40643152, "ECCENTRICITY": 0.0001277, "INCLINATION": 43, "RA_OF_ASC_NODE": 59.7241, "ARG_OF_PERICENTER": 278.2599, "MEAN_ANOMALY": 170.4796, "EPHEMERIS_TYPE": 0, "CLASSIFICATION_TYPE": "U", "NORAD_CAT_ID": 66433, "ELEMENT_SET_NO": 999, "REV_AT_EPOCH": 594, "BSTAR": 0.0027821042, "MEAN_MOTION_DOT": 0.00117495, "MEAN_MOTION_DDOT": 0}, "tle": {"line1": "1 66433U 25259M   25344.66668981  .00117495  00000+0  27821-2 0  9991", "line2": "2 66433  43.0000  59.7241 0001277 278.2599 170.4796 15.40643152  5941"}}, "geometry": {"type": "Point", "coordinates": [-166.20812698903035, 33.27669761425484]}}, {"type": "Feature", "properties": {"norad_id": 66434, "name": "STARLINK-35389", "group": "last-30-days", "lat": 26.597492835173703, "lon": -153.9681288763144, "alt_km": 440.70872971926474, "timestamp": "2025-12-10T20:49:51.343658+00:00", "meta": {"OBJECT_NAME": "STARLINK-35389", "OBJECT_ID": "2025-259N", "EPOCH": "2025-12-10T16:00:01.999584", "MEAN_MOTION": 15.40571521, "ECCENTRICITY": 0.00014374, "INCLINATION": 42.9999, "RA_OF_ASC_NODE": 59.6936, "ARG_OF_PERICENTER": 268.6171, "MEAN_ANOMALY": 192.7091, "EPHEMERIS_TYPE": 0, "CLASSIFICATION_TYPE": "U", "NORAD_CAT_ID": 66434, "ELEMENT_SET_NO": 999, "REV_AT_EPOCH": 594, "BSTAR": 0.0027755991, "MEAN_MOTION_DOT": 0.00116933, "MEAN_MOTION_DDOT": 0}, "tle": {"line1": "1 66434U 25259N   25344.66668981  .00116933  00000+0  27756-2 0  9995", "line2": "2 66434  42.9999  59.6936 0001437 268.6171 192.7091 15.40571521  5949"}}, "geometry": {"type": "Point", "coordinates": [-153.9681288763144, 26.597492835173703]}}, {"type": "Feature", "properties": {"norad_id": 66435, "name": "STARLINK-35502", "group": "last-30-days", "lat": 19.099375643094884, "lon": -143.30913814853153, "alt_km": 441.6823378139834, "timestamp": "2025-12-10T20:49:51.343668+00:00", "meta": {"OBJECT_NAME": "STARLINK-35502", "OBJECT_ID": "2025-259P", "EPOCH": "2025-12-10T16:00:01.999584", "MEAN_MOTION": 15.40664191, "ECCENTRICITY": 0.00011512, "INCLINATION": 43, "RA_OF_ASC_NODE": 59.6647, "ARG_OF_PERICENTER": 289.9843, "MEAN_ANOMALY": 183.6388, "EPHEMERIS_TYPE": 0, "CLASSIFICATION_TYPE": "U", "NORAD_CAT_ID": 66435, "ELEMENT_SET_NO": 999, "REV_AT_EPOCH": 594, "BSTAR": 0.0010032076, "MEAN_MOTION_DOT": 0.00041782, "MEAN_MOTION_DDOT": 0}, "tle": {"line1": "1 66435U 25259P   25344.66668981  .00041782  00000+0  10032-2 0  9994", "line2": "2 66435  43.0000  59.6647 0001151 289.9843 183.6388 15.40664191  5943"}}, "geometry": {"type": "Point", "coordinates": [-143.30913814853153, 19.099375643094884]}}, {"type": "Feature", "properties": {"norad_id": 66436, "name": "STARLINK-35501", "group": "last-30-days", "lat": 2.5868680226869682, "lon": -124.33639156737645, "alt_km": 443.67744478624445, "timestamp": "2025-12-10T20:49:51.343707+00:00", "meta": {"OBJECT_NAME": "STARLINK-35501", "OBJECT_ID": "2025-259Q", "EPOCH": "2025-12-10T16:00:01.999584", "MEAN_MOTION": 15.40597558, "ECCENTRICITY": 0.00012641, "INCLINATION": 43, "RA_OF_ASC_NODE": 59.6026, "ARG_OF_PERICENTER": 271.5925, "MEAN_ANOMALY": 226.9402, "EPHEMERIS_TYPE": 0, "CLASSIFICATION_TYPE": "U", "NORAD_CAT_ID": 66436, "ELEMENT_SET_NO": 999, "REV_AT_EPOCH": 594, "BSTAR": 0.0041002208, "MEAN_MOTION_DOT": 0.0017435, "MEAN_MOTION_DDOT": 0}, "tle": {"line1": "1 66436U 25259Q   25344.66668981  .00174350  00000+0  41002-2 0  9994", "line2": "2 66436  43.0000  59.6026 0001264 271.5925 226.9402 15.40597558  5948"}}, "geometry": {"type": "Point", "coordinates": [-124.33639156737645, 2.5868680226869682]}}, {"type": "Feature", "properties": {"norad_id": 66437, "name": "STARLINK-35474", "group": "last-30-days", "lat": -5.876818603904692, "lon": -115.24650003651166, "alt_km": 444.6065066918627, "timestamp": "2025-12-10T20:49:51.343719+00:00", "meta": {"OBJECT_NAME": "STARLINK-35474", "OBJECT_ID": "2025-259R", "EPOCH": "2025-12-10T16:00:01.999584", "MEAN_MOTION": 15.40639319, "ECCENTRICITY": 0.00016211, "INCLINATION": 43.0001, "RA_OF_ASC_NODE": 59.5718, "ARG_OF_PERICENTER": 277.6481, "MEAN_ANOMALY": 233.3006, "EPHEMERIS_TYPE": 0, "CLASSIFICATION_TYPE": "U", "NORAD_CAT_ID": 66437, "ELEMENT_SET_NO": 999, "REV_AT_EPOCH": 594, "BSTAR": 0.0026506572, "MEAN_MOTION_DOT": 0.00111832, "MEAN_MOTION_DDOT": 0}, "tle": {"line1": "1 66437U 25259R   25344.66668981  .00111832  00000+0  26507-2 0  9994", "line2": "2 66437  43.0001  59.5718 0001621 277.6481 233.3006 15.40639319  5942"}}, "geometry": {"type": "Point", "coordinates": [-115.24650003651166, -5.876818603904692]}}, {"type": "Feature", "properties": {"norad_id": 66438, "name": "STARLINK-34681", "group": "last-30-days", "lat": -14.18468265403664, "lon": -105.88006320388192, "alt_km": 445.55035326009147, "timestamp": "2025-12-10T20:49:51.343729+00:00", "meta": {"OBJECT_NAME": "STARLINK-34681", "OBJECT_ID": "2025-259S", "EPOCH": "2025-12-10T16:00:01.999584", "MEAN_MOTION": 15.40603026, "ECCENTRICITY": 0.00012404, "INCLINATION": 43.0001, "RA_OF_ASC_NODE": 59.542, "ARG_OF_PERICENTER": 290.5108, "MEAN_ANOMALY": 232.8824, "EPHEMERIS_TYPE": 0, "CLASSIFICATION_TYPE": "U", "NORAD_CAT_ID": 66438, "ELEMENT_SET_NO": 999, "REV_AT_EPOCH": 583, "BSTAR": 0.0041723653, "MEAN_MOTION_DOT": 0.0017753, "MEAN_MOTION_DDOT": 0}, "tle": {"line1": "1 66438U 25259S   25344.66668981  .00177530  00000+0  41724-2 0  9990", "line2": "2 66438  43.0001  59.5420 0001240 290.5108 232.8824 15.40603026  5836"}}, "geometry": {"type": "Point", "coordinates": [-105.88006320388192, -14.18468265403664]}}, {"type": "Feature", "properties": {"norad_id": 66439, "name": "STARLINK-35327", "group": "last-30-days", "lat": 10.989476581852987, "lon": -133.55243557280087, "alt_km": 442.567567039031, "timestamp": "2025-12-10T20:49:51.343739+00:00", "meta": {"OBJECT_NAME": "STARLINK-35327", "OBJECT_ID": "2025-259T", "EPOCH": "2025-12-10T16:00:01.999584", "MEAN_MOTION": 15.40604168, "ECCENTRICITY": 0.00010011, "INCLINATION": 43, "RA_OF_ASC_NODE": 59.6356, "ARG_OF_PERICENTER": 267.5416, "MEAN_ANOMALY": 218.5499, "EPHEMERIS_TYPE": 0, "CLASSIFICATION_TYPE": "U", "NORAD_CAT_ID": 66439, "ELEMENT_SET_NO": 999, "REV_AT_EPOCH": 594, "BSTAR": 0.0034473209, "MEAN_MOTION_DOT": 0.00146023, "MEAN_MOTION_DDOT": 0}, "tle": {"line1": "1 66439U 25259T   25344.66668981  .00146023  00000+0  34473-2 0  9997", "line2": "2 66439  43.0000  59.6356 0001001 267.5416 218.5499 15.40604168  5945"}}, "geometry": {"type": "Point", "coordinates": [-133.55243557280087, 10.989476581852987]}}, {"type": "Feature", "properties": {"norad_id": 66440, "name": "STARLINK-35405", "group": "last-30-days", "lat": -22.11121952617347, "lon": -95.79904847283844, "alt_km": 445.785641616274, "timestamp": "2025-12-10T20:49:51.343749+00:00", "meta": {"OBJECT_NAME": "STARLINK-35405", "OBJECT_ID": "2025-259U", "EPOCH": "2025-12-10T16:00:01.999584", "MEAN_MOTION": 15.40672093, "ECCENTRICITY": 0.00014667, "INCLINATION": 43.0002, "RA_OF_ASC_NODE": 59.5124, "ARG_OF_PERICENTER": 276.0661, "MEAN_ANOMALY": 259.7536, "EPHEMERIS_TYPE": 0, "CLASSIFICATION_TYPE": "U", "NORAD_CAT_ID": 66440, "ELEMENT_SET_NO": 999, "REV_AT_EPOCH": 594, "BSTAR": 0.00067350478, "MEAN_MOTION_DOT": 0.00027907, "MEAN_MOTION_DDOT": 0}, "tle": {"line1": "1 66440U 25259U   25344.66668981  .00027907  00000+0  67350-3 0  9999", "line2": "2 66440  43.0002  59.5124 0001466 276.0661 259.7536 15.40672093  5944"}}, "geometry": {"type": "Point", "coordinates": [-95.79904847283844, -22.11121952617347]}}, {"type": "Feature", "properties": {"norad_id": 66441, "name": "STARLINK-35426", "group": "last-30-days", "lat": -29.332650502589388, "lon": -84.59305739372701, "alt_km": 446.3480175950517, "timestamp": "2025-12-10T20:49:51.343760+00:00", "meta": {"OBJECT_NAME": "STARLINK-35426", "OBJECT_ID": "2025-259V", "EPOCH": "2025-12-10T16:00:01.999584", "MEAN_MOTION": 15.40605914, "ECCENTRICITY": 0.00014897, "INCLINATION": 43.0005, "RA_OF_ASC_NODE": 59.4814, "ARG_OF_PERICENTER": 285.0687, "MEAN_ANOMALY": 263.2205, "EPHEMERIS_TYPE": 0, "CLASSIFICATION_TYPE": "U", "NORAD_CAT_ID": 66441, "ELEMENT_SET_NO": 999, "REV_AT_EPOCH": 594, "BSTAR": 0.0028589709, "MEAN_MOTION_DOT": 0.00120651, "MEAN_MOTION_DDOT": 0}, "tle": {"line1": "1 66441U 25259V   25344.66668981  .00120651  00000+0  28590-2 0  9992", "line2": "2 66441  43.0005  59.4814 0001489 285.0687 263.2205 15.40605914  5947"}}, "geometry": {"type": "Point", "coordinates": [-84.59305739372701, -29.332650502589388]}}]}